HomePolicyId|Sequence|EffectiveDate|Address|City|Description|NoOfFam|Person|State|StructureDescription|StructureLimit|Type|Zip|CorPunish
76911|1|20190425|43 lee street b |woodstown ||2|MARGARET COLES|nj ||0|Dwelling Rented to Others|08098 |
80826|1|20181010|buttonwood avenue |hancocks bridge ||1|JEAN EMMONS|nj ||0|Dwelling Rented to Others||
81618|1|20190114|8 spruce avenue |salem ||1|PAULA GREEN-LEMAY|nj ||0|Dwelling Rented to Others|08079 |
83136|1|20180914|87 buttonwood avenue |hancocks bridge, salem county ||1|DIANA ALEXANDER|nj ||0|Dwelling Rented to Others|08038 |
84975|1|20181215|33 line street |pennsgrove ||1|JOHN LUCCHESI|nj ||0|Dwelling Rented to Others|08069 |
86635|1|20180916|515 lewandowski st |lyndhurst ||1|MICHAEL FESTA|nj ||0|Dwelling Rented to Others|07071 |
86635|2|20180916|163 lewandowski st. lot 2-b |block, lyndhurst ||1|MICHAEL FESTA|nj ||0|Dwelling Rented to Others|07071 |
92611|1|20181025|89a repaupo station road |logan twp ||1|JEAN WACHTER|nj ||0|Dwelling Rented to Others|08085 |
92611|2|20181025|89b repaupo station road |logan twp ||1|JEAN WACHTER|nj ||0|Dwelling Rented to Others|08085 |
93464|1|20190331|79 mattix run club |ii; absecon ||1|FRANK MAHONEY|nj ||0|Dwelling Rented to Others|08201 |
96889|1|20190401|900 mermaid avenue |beachwood ||1|KENNETH STEGMAN|nj ||0|Dwelling Rented to Others|08722 |
98272|1|20190305|124 stanton road east |wildwood crest ||2|WILLIAM KITA|nj ||0|Dwelling Rented to Others|08260 |
99799|1|20181101|582 russell avenue |long branch ||1|JAMES LONGENBERGER|nj ||0|Dwelling Rented to Others|07740 |
100872|1|20190317||shiloh ||1|RAYMOND MCDERMOTT|nj ||0|Dwelling Rented to Others|08353 |
104709|1|20180830|Richard_street_address|||1|WILLIAM LOUFIK|||0|Dwelling Rented to Others||
106606|1|20181005|119 cuthbert road |cinnaminson ||1|WILLIAM BURKETT|nj ||0|Dwelling Rented to Others|08077 |
106783|1|20181012|9 lakeview avenue |oaklyn ||1|ROSINSKI-VERONI ROSINSKI-VERONICA N|nj ||0|Dwelling Rented to Others||
107801|1|20181112|main street north |shiloh ||1|BARBARA PETERSON|nj ||0|Dwelling Rented to Others|08353 |
108193|1|20181122|13 griffith street west |penns grove ||1|DAVID DIXON|nj ||0|Dwelling Rented to Others|08069 |
112075|1|20180627|125-127 queen avenue |pennsville ||2|GEORGE KEHNAST|nj ||0|Dwelling Rented to Others|08070 |
204086|1|20181006|123 morning glory road east |rear) wildwood crest ||2|CELIA BARNHART-SPELLIER|nj ||0|Dwelling Rented to Others||
211570|1|20190412|s/s wiley street east |whitesboro ||1|FRANK JOHNSON|nj ||0|Dwelling Rented to Others||
212585|1|20180624|139 bay avenue |highlands ||1|JAMES DAVIS|nj ||0|Dwelling Rented to Others|07732 |
213355|1|20181023|130 duke street |||2|ARNALDO FERREIRA|||0|Dwelling Rented to Others||
215155|1|20181005|826 raymond boulevard |newark ||3|JOSE NUNES|nj ||0|Dwelling Rented to Others|07105 |
215155|2|20181005|822 raymond boulevard |newark ||1|JOSE NUNES|nj ||0|Dwelling Rented to Others|07105 |
215276|1|20181007|92 cookman avenue |ocean grove ||1|LOIS PITTIS|nj ||0|Dwelling Rented to Others|07756 |
216699|1|20180626|208 14th st floor) (1st |brigantine ||1|GEORGE LAWAICH|nj ||0|Dwelling Rented to Others|08203 |
217065|1|20180805|651 delaware street north |paulsboro ||1|JOHN BURZICHELLI|nj ||0|Dwelling Rented to Others|08006 |
217434|1|20181103|310 4th street north |(rear), harrison ||2|MARIA COELHO|nj ||0|Dwelling Rented to Others|07029 |
218603|1|20180727|291 marion avenue |cliffside park ||2|LOUISE PARISI|nj ||0|Dwelling Rented to Others|07010 |
218603|2|20180727|293 marion avenue |cliffside park ||2|LOUISE PARISI|nj ||0|Dwelling Rented to Others|07010 |
218659|1|20180625|3009 landis avenue north |sea isle city ||1|CLARENCE STULL|nj ||0|Dwelling Rented to Others|08243 |
220677|1|20181220|175 wilson avenue |newark ||2|MANUEL SOARES|nj ||0|Dwelling Rented to Others|07105 |
220691|1|20181222|95 napoleon street |newark ||1|ALBERTO ANTAO|nj ||0|Dwelling Rented to Others|07105 |
220691|2|20181222|93 napoleon street |newark ||1|ALBERTO ANTAO|nj ||0|Dwelling Rented to Others|07105 |
220691|3|20181222|28 komorn street |newark ||2|ALBERTO ANTAO|nj ||0|Dwelling Rented to Others|07105 |
221168|1|20190311|28 adams avenue west |pleasantville ||1|JANE CERINO|nj ||0|Dwelling Rented to Others|08232 |
221294|1|20190420|14 carpenter st |woodbury ||1|SYLVIA HILL|nj ||0|Dwelling Rented to Others||
221294|2|20190420|13 courtland st |woodbury ||2|SYLVIA HILL|nj ||0|Dwelling Rented to Others||
222754|1|20180701|23 cedar place |beckett ||1|ROYAL MULHORN|nj ||0|Dwelling Rented to Others|08085 |
222754|2|20180701|239 elfsborg ft rd. |elsinboro ||1|ROYAL MULHORN|nj ||0|Dwelling Rented to Others|08079 |
222754|3|20180701|426 15th avenue east |wildwood ||2|ROYAL MULHORN|nj ||0|Dwelling Rented to Others|08260 |
225521|1|20181113|821 penna ave. |somers point ||1|EVELYN LUSHEAR|nj ||0|Dwelling Rented to Others|08244 |
225521|2|20181113|3 creastmont ave. |somers point ||2|EVELYN LUSHEAR|nj ||0|Dwelling Rented to Others|08244 |
225521|3|20181113|5 creastmont ave. |somers point ||2|EVELYN LUSHEAR|nj ||0|Dwelling Rented to Others|08244 |
225521|4|20181113|115 new jersey ave. w. |somers point ||4|EVELYN LUSHEAR|nj ||0|Dwelling Rented to Others||
225521|5|20181113|211 tremont ave. w |pleasantville ||3|EVELYN LUSHEAR|nj ||0|Dwelling Rented to Others|08232 |
226521|1|20190125|6 francis place |montclair ||3|JAMES MAFFEI|nj ||0|Dwelling Rented to Others||
227502|1|20190415|712 avon road |pine beach ||1|PAT PAGNOTTA|nj ||0|Dwelling Rented to Others|08748 |
227666|1|20190412|109 cresse avenue west |rear, wilwood ||1|DOROTHY RANISZEWSKI|nj ||0|Dwelling Rented to Others|08260 |
229174|1|20180716|111 mulberry street |newark ||1|CECIL SANDERS|nj ||0|Dwelling Rented to Others|07102 |
229324|1|20180901|4257-59 west avenue |ocean city ||2|DOUGLAS LONG|nj ||0|Dwelling Rented to Others|08226 |
229518|1|20181010|Richard_street_address|||1|BENJIE SWAN|||0|Dwelling Rented to Others||
229518|2|20181010|6 oak avenue cape |may courthouse ||1|BENJIE SWAN|nj ||0|Dwelling Rented to Others|08210 |
229518|3|20181010|16 oak avenue cape |may courthouse ||1|BENJIE SWAN|nj ||0|Dwelling Rented to Others|08210 |
229833|1|20181031|308 van sant avenue |linwood ||1|HARRY ADAMS|nj ||0|Dwelling Rented to Others|08227 |
232376|1|20180719|41 normandie beach |sea bright ||1|ARMEN KHACHATURIAN|nj ||0|Dwelling Rented to Others||
232509|1|20180626|638 pennsylvania avenue |delanco ||3|THOMAS MACWRIGHT|nj ||0|Dwelling Rented to Others|08075 |
232894|1|20180815|10 abbott avenue |ocean grove ||4|ROBERT CAPOZZI|nj ||0|Dwelling Rented to Others|07756 |
234244|1|20190111|48 main street |pennsville ||1|ROBERT YOUKER|nj ||0|Dwelling Rented to Others|08070 |
234264|1|20190123|151 livingston avenue |new providence ||2|RICHARD FASTNACHT|nj ||0|Dwelling Rented to Others|07974 |
234852|1|20190329|98 nichols street |newark ||3|MANUEL VIDAL|nj ||0|Dwelling Rented to Others|07105 |
235908|1|20180715|11-13 front street |pennsville ||2|FRANK SMITH|nj ||0|Dwelling Rented to Others|08098 |
236686|1|20181021|7101 pleasure avenue |sea isle ||1|MICHAEL STERN|nj ||0|Dwelling Rented to Others|08243 |
238455|1|20190421|48 garrison street |(front) newark ||2|MANUEL DESOUSA|nj ||0|Dwelling Rented to Others||
239141|1|20180707|8 los angeles drive |little egg harbor ||1|KARL HELD|nj ||0|Dwelling Rented to Others|08087 |
241648|1|20181209|17 ella street |bloomingdale ||1|WILLIAM WHITEHEAD|nj ||0|Dwelling Rented to Others|07403 |
242179|1|20190105|11 cedar road |mickleton ||1|EDWARD MCCAFFREY|nj ||0|Dwelling Rented to Others|08056 |
243368|1|20190201|6 woodward road |manlapan ||1|MURRAY LIPMAN|nj ||0|Dwelling Rented to Others|07726 |
244080|1|20190428|930 main street |canton, salem ||1|DAVID TURNER|nj ||0|Dwelling Rented to Others|08079 |
244703|1|20180721|82 houston street |newark ||1|JOSE SARAIVA|nj ||0|Dwelling Rented to Others||
245353|1|20181006|13 eaton road |pennsville ||1|LOUISE BOWMAN|nj ||0|Dwelling Rented to Others|08070 |
246425|1|20190324|235 poplar avenue west |wildwood ||1|MICHAEL FRANKS|nj ||0|Dwelling Rented to Others|08260 |
246425|2|20190324|24 taylor avenue west |north wildwood ||1|MICHAEL FRANKS|nj ||0|Dwelling Rented to Others|08260 |
248566|1|20181209|778 kings highway |(front house) middletown ||1|ROBERT HEIDT|nj ||0|Dwelling Rented to Others|07748 |
301376|1|20190409|151 chicago boulevard point |pleasant beach ||1|MICHAEL FAVATO|nj ||0|Dwelling Rented to Others|08742 |
303541|1|20190330|1116 aaron road |north brunswick ||1|JOHN TRILLI|nj ||0|Dwelling Rented to Others|08902 |
305086|1|20190417|1719 beverly ave |(rear), spring lake hts ||1|SHARON BATTEAU|nj ||0|Dwelling Rented to Others|07762 |
308372|1|20190301|3104 ventnor avenue |longport ||1|JAMES CALLISTA|nj ||0|Dwelling Rented to Others|08403 |
313672|1|20180622|1201 commerce street n. |paulsboro ||1|VENOLD JOHNSON|nj ||0|Dwelling Rented to Others|08066 |
20001860|1|20180720|170 evergreen road apt 9a |edison ||1|ANN LIPIRO|nj ||0|Dwelling Rented to Others||
20002471|1|20180715|705 conifer drive |forked river ||1|JANE LORTON|nj ||0|Dwelling Rented to Others|08731 |
20007366|1|20180727|70 broadway |deepwater ||1|THOMAS HERZ|nj ||0|Dwelling Rented to Others|08023 |
20008043|1|20180730|183 lake road |atco ||1|JOSEPH GERMANO III|nj ||0|Dwelling Rented to Others|08004 |
20008527|1|20180923|272 pennsville-auburn road |pedricktown ||1|DONNA ZITKEVITZ|nj ||0|Dwelling Rented to Others||
20009041|1|20180801|84a white street |eatonbrook co-op eatontown ||1|ROBIN KREINER|nj ||0|Dwelling Rented to Others|07724 |
20012439|1|20190217|75 carpenter street |salem ||1|EDWARD MOORE|nj ||0|Dwelling Rented to Others|08079 |
20013411|1|20180727|2396 tricia court |atco ||1|ALAN BLACKFORD|nj ||0|Dwelling Rented to Others|08004 |
20013411|2|20180727|259 boxwood lane |cinaminson ||1|ALAN BLACKFORD|nj ||0|Dwelling Rented to Others|08077 |
20016984|1|20190303|42 bridgeport road south |bridgeport ||1|ROY MILLER|nj ||0|Dwelling Rented to Others|08014 |
20018568|1|20180720|530 valley road # 3n |upper montclair ||1|WILLIAM BASRALIAN|nj ||0|Dwelling Rented to Others|07043 |
20019192|1|20181028|41 pennington avenue |mays landing ||2|FREDERICK KNEBLE|nj ||0|Dwelling Rented to Others|08330 |
20019410|1|20181118|4 spruce street |waretown ||1|BRUCE BUSSELL|nj ||0|Dwelling Rented to Others||
20019537|1|20181209|631 central avenue |harrison ||3|JOHN MIGUEIS|nj ||0|Dwelling Rented to Others|07029 |
20024903|1|20180812|402 broadway south |sewell ||3|MICHAEL CARUSO|nj ||0|Dwelling Rented to Others|08080 |
20024918|1|20180927|99-99 asbury avenue 1/2 |ocean grove ||2|JEFFREY WILLIAMS|nj ||0|Dwelling Rented to Others|07756 |
20024921|1|20180729|53 poplar avenue |hackensack ||2|MICHAEL MINCHALA|nj ||0|Dwelling Rented to Others|07601 |
20025596|1|20190201|216 van buren street |newark ||3|JOSE HENRIQUES|nj ||0|Dwelling Rented to Others|07105 |
20025869|1|20190315|102 baltimore ave |glen burnie ||1| |md ||0|Dwelling Rented to Others|21061 |
20025869|2|20190315|718 wellham ave |glen burnie ||1| |md ||0|Dwelling Rented to Others|21061 |
20025869|3|20190315|104 baltimore avenue |glen burnie ||1| |md ||0|Dwelling Rented to Others|21061 |
20025869|4|20190315|106 baltimore avenue |glen burnie ||1| |md ||0|Dwelling Rented to Others|21061 |
20025869|5|20190315|351 baltimore avenue |odenton ||1| |md ||0|Dwelling Rented to Others|21113 |
20025869|6|20190315|700 wellham avenue |glen burnie ||1| |md ||0|Dwelling Rented to Others|21061 |
20026150|1|20190329|170-172 magnolia avenue |kearny ||4|ARMANDO MARTINS|nj ||0|Dwelling Rented to Others|07032 |
20026150|2|20190329|14-16 schuyler court |kearny ||4|ARMANDO MARTINS|nj ||0|Dwelling Rented to Others|07032 |
20028158|1|20190211|7 colony road |ortley beach ||1|DENISE BUCKLEY|nj ||0|Dwelling Rented to Others|08757 |
20030754|1|20190215|817 bordentown road |burlington ||1|GREGORY DEMASI|nj ||0|Dwelling Rented to Others|08016 |
20030754|2|20190215|40 broadway unit # 301-302 south |pitman ||1|GREGORY DEMASI|nj ||0|Dwelling Rented to Others|08071 |
20030795|1|20190105|37 greenwood avenue e |villas ||1|ROBERT NOLAN|nj ||0|Dwelling Rented to Others|08251 |
20030994|1|20190210|5 silopanna court |annapolis ||1| |md ||0|Dwelling Rented to Others|21403 |
20032066|1|20180912|967 belvoir road |plymouth meeting ||1|LAURA CLEELAND|pa ||0|Dwelling Rented to Others|19462 |
20032827|1|20190215|89 terrace ave |jersey city ||2|JAYANTILAL MUNJAPARA|nj ||0|Dwelling Rented to Others|07307 |
20032827|2|20190215|97 terrace ave |jersey city ||2|JAYANTILAL MUNJAPARA|nj ||0|Dwelling Rented to Others|07307 |
20033183|1|20190331|3144 windsor avenue |toms river ||1|CHAOYLING CHEN|nj ||0|Dwelling Rented to Others|08753 |
20034698|1|20180822|635 wyndham road |teaneck ||1|JON LONG|nj ||0|Dwelling Rented to Others|07666 |
20034821|1|20180922|24 28th avenue north |longport ||2|ROBERT WILLIAMS|nj ||0|Dwelling Rented to Others|08403 |
20035622|1|20181121|246 harmony road |gibbstown ||1|FREDERICK WEBER|nj ||0|Dwelling Rented to Others|08027 |
20036543|1|20190202|445 morris avenue |springfield ||1|MARISA PICA|nj ||0|Dwelling Rented to Others||
20036758|1|20190220|20 manor blvd. |edison ||1|BAHGAT AWAD|nj ||0|Dwelling Rented to Others|08820 |
20036758|2|20190220|538 shetland ct |sewell ||1|BAHGAT AWAD|nj ||0|Dwelling Rented to Others|08080 |
20037109|1|20190319|51 birchwood avenue |west orange ||1|DAVID POESL|nj ||0|Dwelling Rented to Others|07052 |
20037159|1|20190322|11 veterans way |edgewater ||1|GEORGE VILLANO|nj ||0|Dwelling Rented to Others|07020 |
20038991|1|20180802|243 lakewood drive |bloomfield ||2|ALFRED VASQUEZ|nj ||0|Dwelling Rented to Others|07003 |
20040171|1|20181127|32 maple lane a |brielle ||1|JOHN SICKLES|nj ||0|Dwelling Rented to Others|08730 |
20040801|1|20181204|1501 ocean avenue unit a19 |belmar ||1|DENNIS HORVATH, JR.|nj ||0|Dwelling Rented to Others|07719 |
20041101|1|20190112|105 woodbridge road |marlton ||1|TOM RAYNOR|nj ||0|Dwelling Rented to Others|08053 |
20041179|1|20190123|435 east avenue |millville ||1|CAROL PIERCE|nj ||0|Dwelling Rented to Others|08332 |
20041725|1|20190301|141 big piece rd |fairfield ||1|PETER MATARAZZO|nj ||0|Dwelling Rented to Others|07004 |
20041725|2|20190301|268 horseneck rd |fairlfield ||1|PETER MATARAZZO|nj ||0|Dwelling Rented to Others|07004 |
20042160|1|20190401|9601 atlantic ave unit 511 |wildwood ||1|ZHENG SHOU|nj ||0|Dwelling Rented to Others|08260 |
20042404|1|20190501|120 franklin avenue |egg harbor township ||1|ERIC BRITTAIN|nj ||0|Dwelling Rented to Others|08234 |
20044681|1|20180927|80 arlene ct |brick ||1|BERND FUELLEMANN|nj ||0|Dwelling Rented to Others|08724 |
20045688|1|20181125|8 oak court |brick ||1|MAUREEN CRONIN|nj ||0|Dwelling Rented to Others|07092 |
20046201|1|20190114|40 hadley lane |willingboro ||1|GAINUS CARTER|nj ||0|Dwelling Rented to Others|08046 |
20047288|1|20190418|276 claremont avenue |montclair ||3|EDWARD COSME|nj ||0|Dwelling Rented to Others|07042 |
20047519|1|20190501|149 mclaren st |red ||2|THOMAS SABELLA|bank ||0|Dwelling Rented to Others|07704 |
20047519|2|20190501|151 bridge ave |red bank ||2|THOMAS SABELLA|nj ||0|Dwelling Rented to Others|07704 |
20048185|1|20180719|515 delsea drive |sewell ||1|GLEN RAHM|nj ||0|Dwelling Rented to Others|08080 |
20048305|1|20180730|138 hamilton street |new brunswick ||2|SCOTT ELIAS|nj ||0|Dwelling Rented to Others|08901 |
20048444|1|20180701|423 somerset avnue |salisbury ||1| |md ||0|Dwelling Rented to Others|21801 |
20048619|1|20180723|146 ocean rd |ocean city ||1|ANN PALAITIS|nj ||0|Dwelling Rented to Others|08226 |
20049002|1|20180907|915-917 brighton place |ocean city ||3|FRANKLIN LISA|nj ||0|Dwelling Rented to Others|08226 |
20055176|1|20190405|320 18th ave |belmar ||1|CHARLES KOSTURA|nj ||0|Dwelling Rented to Others|07719 |
20056721|1|20180812|11 silver avenue |egg harbor township ||1|FREDERICK PUGGI|nj ||0|Dwelling Rented to Others||
20056846|1|20180828|550 central avenue unit # 50 |harrison ||1|MARIOLA KOMUREK-DEMATOS|nj ||0|Dwelling Rented to Others|07029 |
20058992|1|20190323|97 millstone road |englishtown ||1|THERESA GUTTRIDGE|nj ||0|Dwelling Rented to Others|07726 |
20059332|1|20190417|207-207 mercer street |hightstown ||4|LUMNIA PEROVIC|nj ||0|Dwelling Rented to Others|08520 |
20061406|1|20180901|2019 watersedge drive |toms river ||1|FRANK ADESSO|nj ||0|Dwelling Rented to Others|08753 |
20061406|2|20180901|544 ridgeview court |toms river ||1|FRANK ADESSO|nj ||0|Dwelling Rented to Others|08753 |
20061552|1|20180915|2 jerome avenue |erial ||2|ARLEEN LATHAM|nj ||0|Dwelling Rented to Others|08081 |
20062736|1|20181214|364 47 route |cape may court house ||1|FRANK WARBURTON|nj ||0|Dwelling Rented to Others||
HomePolicyId|Sequence|EffectiveDate|Address|City|Description|NoOfFam|Person|State|StructureDescription|StructureLimit|Type|Zip|CorPunish
76911|1|20190425|43 lee street b |woodstown ||2|MARGARET COLES|nj ||0|Dwelling Rented to Others|08098 |
80826|1|20181010|buttonwood avenue |hancocks bridge ||1|JEAN EMMONS|nj ||0|Dwelling Rented to Others||
81618|1|20190114|8 spruce avenue |salem ||1|PAULA GREEN-LEMAY|nj ||0|Dwelling Rented to Others|08079 |
83136|1|20180914|87 buttonwood avenue |hancocks bridge, salem county ||1|DIANA ALEXANDER|nj ||0|Dwelling Rented to Others|08038 |
84975|1|20181215|33 line street |pennsgrove ||1|JOHN LUCCHESI|nj ||0|Dwelling Rented to Others|08069 |
86635|1|20180916|515 lewandowski st |lyndhurst ||1|MICHAEL FESTA|nj ||0|Dwelling Rented to Others|07071 |
86635|2|20180916|163 lewandowski st. lot 2-b |block, lyndhurst ||1|MICHAEL FESTA|nj ||0|Dwelling Rented to Others|07071 |
92611|1|20181025|89a repaupo station road |logan twp ||1|JEAN WACHTER|nj ||0|Dwelling Rented to Others|08085 |
92611|2|20181025|89b repaupo station road |logan twp ||1|JEAN WACHTER|nj ||0|Dwelling Rented to Others|08085 |
93464|1|20190331|79 mattix run club |ii; absecon ||1|FRANK MAHONEY|nj ||0|Dwelling Rented to Others|08201 |
96889|1|20190401|900 mermaid avenue |beachwood ||1|KENNETH STEGMAN|nj ||0|Dwelling Rented to Others|08722 |
98272|1|20190305|124 stanton road east |wildwood crest ||2|WILLIAM KITA|nj ||0|Dwelling Rented to Others|08260 |
99799|1|20181101|582 russell avenue |long branch ||1|JAMES LONGENBERGER|nj ||0|Dwelling Rented to Others|07740 |
100872|1|20190317||shiloh ||1|RAYMOND MCDERMOTT|nj ||0|Dwelling Rented to Others|08353 |
104709|1|20180830|Richard_street_address|||1|WILLIAM LOUFIK|||0|Dwelling Rented to Others||
106606|1|20181005|119 cuthbert road |cinnaminson ||1|WILLIAM BURKETT|nj ||0|Dwelling Rented to Others|08077 |
106783|1|20181012|9 lakeview avenue |oaklyn ||1|ROSINSKI-VERONI ROSINSKI-VERONICA N|nj ||0|Dwelling Rented to Others||
107801|1|20181112|main street north |shiloh ||1|BARBARA PETERSON|nj ||0|Dwelling Rented to Others|08353 |
108193|1|20181122|13 griffith street west |penns grove ||1|DAVID DIXON|nj ||0|Dwelling Rented to Others|08069 |
112075|1|20180627|125-127 queen avenue |pennsville ||2|GEORGE KEHNAST|nj ||0|Dwelling Rented to Others|08070 |
204086|1|20181006|123 morning glory road east |rear) wildwood crest ||2|CELIA BARNHART-SPELLIER|nj ||0|Dwelling Rented to Others||
211570|1|20190412|s/s wiley street east |whitesboro ||1|FRANK JOHNSON|nj ||0|Dwelling Rented to Others||
212585|1|20180624|139 bay avenue |highlands ||1|JAMES DAVIS|nj ||0|Dwelling Rented to Others|07732 |
213355|1|20181023|130 duke street |||2|ARNALDO FERREIRA|||0|Dwelling Rented to Others||
215155|1|20181005|826 raymond boulevard |newark ||3|JOSE NUNES|nj ||0|Dwelling Rented to Others|07105 |
215155|2|20181005|822 raymond boulevard |newark ||1|JOSE NUNES|nj ||0|Dwelling Rented to Others|07105 |
215276|1|20181007|92 cookman avenue |ocean grove ||1|LOIS PITTIS|nj ||0|Dwelling Rented to Others|07756 |
216699|1|20180626|208 14th st floor) (1st |brigantine ||1|GEORGE LAWAICH|nj ||0|Dwelling Rented to Others|08203 |
217065|1|20180805|651 delaware street north |paulsboro ||1|JOHN BURZICHELLI|nj ||0|Dwelling Rented to Others|08006 |
217434|1|20181103|310 4th street north |(rear), harrison ||2|MARIA COELHO|nj ||0|Dwelling Rented to Others|07029 |
218603|1|20180727|291 marion avenue |cliffside park ||2|LOUISE PARISI|nj ||0|Dwelling Rented to Others|07010 |
218603|2|20180727|293 marion avenue |cliffside park ||2|LOUISE PARISI|nj ||0|Dwelling Rented to Others|07010 |
218659|1|20180625|3009 landis avenue north |sea isle city ||1|CLARENCE STULL|nj ||0|Dwelling Rented to Others|08243 |
220677|1|20181220|175 wilson avenue |newark ||2|MANUEL SOARES|nj ||0|Dwelling Rented to Others|07105 |
220691|1|20181222|95 napoleon street |newark ||1|ALBERTO ANTAO|nj ||0|Dwelling Rented to Others|07105 |
220691|2|20181222|93 napoleon street |newark ||1|ALBERTO ANTAO|nj ||0|Dwelling Rented to Others|07105 |
220691|3|20181222|28 komorn street |newark ||2|ALBERTO ANTAO|nj ||0|Dwelling Rented to Others|07105 |
221168|1|20190311|28 adams avenue west |pleasantville ||1|JANE CERINO|nj ||0|Dwelling Rented to Others|08232 |
221294|1|20190420|14 carpenter st |woodbury ||1|SYLVIA HILL|nj ||0|Dwelling Rented to Others||
221294|2|20190420|13 courtland st |woodbury ||2|SYLVIA HILL|nj ||0|Dwelling Rented to Others||
222754|1|20180701|23 cedar place |beckett ||1|ROYAL MULHORN|nj ||0|Dwelling Rented to Others|08085 |
222754|2|20180701|239 elfsborg ft rd. |elsinboro ||1|ROYAL MULHORN|nj ||0|Dwelling Rented to Others|08079 |
222754|3|20180701|426 15th avenue east |wildwood ||2|ROYAL MULHORN|nj ||0|Dwelling Rented to Others|08260 |
225521|1|20181113|821 penna ave. |somers point ||1|EVELYN LUSHEAR|nj ||0|Dwelling Rented to Others|08244 |
225521|2|20181113|3 creastmont ave. |somers point ||2|EVELYN LUSHEAR|nj ||0|Dwelling Rented to Others|08244 |
225521|3|20181113|5 creastmont ave. |somers point ||2|EVELYN LUSHEAR|nj ||0|Dwelling Rented to Others|08244 |
225521|4|20181113|115 new jersey ave. w. |somers point ||4|EVELYN LUSHEAR|nj ||0|Dwelling Rented to Others||
225521|5|20181113|211 tremont ave. w |pleasantville ||3|EVELYN LUSHEAR|nj ||0|Dwelling Rented to Others|08232 |
226521|1|20190125|6 francis place |montclair ||3|JAMES MAFFEI|nj ||0|Dwelling Rented to Others||
227502|1|20190415|712 avon road |pine beach ||1|PAT PAGNOTTA|nj ||0|Dwelling Rented to Others|08748 |
227666|1|20190412|109 cresse avenue west |rear, wilwood ||1|DOROTHY RANISZEWSKI|nj ||0|Dwelling Rented to Others|08260 |
229174|1|20180716|111 mulberry street |newark ||1|CECIL SANDERS|nj ||0|Dwelling Rented to Others|07102 |
229324|1|20180901|4257-59 west avenue |ocean city ||2|DOUGLAS LONG|nj ||0|Dwelling Rented to Others|08226 |
229518|1|20181010|Richard_street_address|||1|BENJIE SWAN|||0|Dwelling Rented to Others||
229518|2|20181010|6 oak avenue cape |may courthouse ||1|BENJIE SWAN|nj ||0|Dwelling Rented to Others|08210 |
229518|3|20181010|16 oak avenue cape |may courthouse ||1|BENJIE SWAN|nj ||0|Dwelling Rented to Others|08210 |
229833|1|20181031|308 van sant avenue |linwood ||1|HARRY ADAMS|nj ||0|Dwelling Rented to Others|08227 |
232376|1|20180719|41 normandie beach |sea bright ||1|ARMEN KHACHATURIAN|nj ||0|Dwelling Rented to Others||
232509|1|20180626|638 pennsylvania avenue |delanco ||3|THOMAS MACWRIGHT|nj ||0|Dwelling Rented to Others|08075 |
232894|1|20180815|10 abbott avenue |ocean grove ||4|ROBERT CAPOZZI|nj ||0|Dwelling Rented to Others|07756 |
234244|1|20190111|48 main street |pennsville ||1|ROBERT YOUKER|nj ||0|Dwelling Rented to Others|08070 |
234264|1|20190123|151 livingston avenue |new providence ||2|RICHARD FASTNACHT|nj ||0|Dwelling Rented to Others|07974 |
234852|1|20190329|98 nichols street |newark ||3|MANUEL VIDAL|nj ||0|Dwelling Rented to Others|07105 |
235908|1|20180715|11-13 front street |pennsville ||2|FRANK SMITH|nj ||0|Dwelling Rented to Others|08098 |
236686|1|20181021|7101 pleasure avenue |sea isle ||1|MICHAEL STERN|nj ||0|Dwelling Rented to Others|08243 |
238455|1|20190421|48 garrison street |(front) newark ||2|MANUEL DESOUSA|nj ||0|Dwelling Rented to Others||
239141|1|20180707|8 los angeles drive |little egg harbor ||1|KARL HELD|nj ||0|Dwelling Rented to Others|08087 |
241648|1|20181209|17 ella street |bloomingdale ||1|WILLIAM WHITEHEAD|nj ||0|Dwelling Rented to Others|07403 |
242179|1|20190105|11 cedar road |mickleton ||1|EDWARD MCCAFFREY|nj ||0|Dwelling Rented to Others|08056 |
243368|1|20190201|6 woodward road |manlapan ||1|MURRAY LIPMAN|nj ||0|Dwelling Rented to Others|07726 |
244080|1|20190428|930 main street |canton, salem ||1|DAVID TURNER|nj ||0|Dwelling Rented to Others|08079 |
244703|1|20180721|82 houston street |newark ||1|JOSE SARAIVA|nj ||0|Dwelling Rented to Others||
245353|1|20181006|13 eaton road |pennsville ||1|LOUISE BOWMAN|nj ||0|Dwelling Rented to Others|08070 |
246425|1|20190324|235 poplar avenue west |wildwood ||1|MICHAEL FRANKS|nj ||0|Dwelling Rented to Others|08260 |
246425|2|20190324|24 taylor avenue west |north wildwood ||1|MICHAEL FRANKS|nj ||0|Dwelling Rented to Others|08260 |
248566|1|20181209|778 kings highway |(front house) middletown ||1|ROBERT HEIDT|nj ||0|Dwelling Rented to Others|07748 |
301376|1|20190409|151 chicago boulevard point |pleasant beach ||1|MICHAEL FAVATO|nj ||0|Dwelling Rented to Others|08742 |
303541|1|20190330|1116 aaron road |north brunswick ||1|JOHN TRILLI|nj ||0|Dwelling Rented to Others|08902 |
305086|1|20190417|1719 beverly ave |(rear), spring lake hts ||1|SHARON BATTEAU|nj ||0|Dwelling Rented to Others|07762 |
308372|1|20190301|3104 ventnor avenue |longport ||1|JAMES CALLISTA|nj ||0|Dwelling Rented to Others|08403 |
313672|1|20180622|1201 commerce street n. |paulsboro ||1|VENOLD JOHNSON|nj ||0|Dwelling Rented to Others|08066 |
20001860|1|20180720|170 evergreen road apt 9a |edison ||1|ANN LIPIRO|nj ||0|Dwelling Rented to Others||
20002471|1|20180715|705 conifer drive |forked river ||1|JANE LORTON|nj ||0|Dwelling Rented to Others|08731 |
20007366|1|20180727|70 broadway |deepwater ||1|THOMAS HERZ|nj ||0|Dwelling Rented to Others|08023 |
20008043|1|20180730|183 lake road |atco ||1|JOSEPH GERMANO III|nj ||0|Dwelling Rented to Others|08004 |
20008527|1|20180923|272 pennsville-auburn road |pedricktown ||1|DONNA ZITKEVITZ|nj ||0|Dwelling Rented to Others||
20009041|1|20180801|84a white street |eatonbrook co-op eatontown ||1|ROBIN KREINER|nj ||0|Dwelling Rented to Others|07724 |
20012439|1|20190217|75 carpenter street |salem ||1|EDWARD MOORE|nj ||0|Dwelling Rented to Others|08079 |
20013411|1|20180727|2396 tricia court |atco ||1|ALAN BLACKFORD|nj ||0|Dwelling Rented to Others|08004 |
20013411|2|20180727|259 boxwood lane |cinaminson ||1|ALAN BLACKFORD|nj ||0|Dwelling Rented to Others|08077 |
20016984|1|20190303|42 bridgeport road south |bridgeport ||1|ROY MILLER|nj ||0|Dwelling Rented to Others|08014 |
20018568|1|20180720|530 valley road # 3n |upper montclair ||1|WILLIAM BASRALIAN|nj ||0|Dwelling Rented to Others|07043 |
20019192|1|20181028|41 pennington avenue |mays landing ||2|FREDERICK KNEBLE|nj ||0|Dwelling Rented to Others|08330 |
20019410|1|20181118|4 spruce street |waretown ||1|BRUCE BUSSELL|nj ||0|Dwelling Rented to Others||
20019537|1|20181209|631 central avenue |harrison ||3|JOHN MIGUEIS|nj ||0|Dwelling Rented to Others|07029 |
20024903|1|20180812|402 broadway south |sewell ||3|MICHAEL CARUSO|nj ||0|Dwelling Rented to Others|08080 |
20024918|1|20180927|99-99 asbury avenue 1/2 |ocean grove ||2|JEFFREY WILLIAMS|nj ||0|Dwelling Rented to Others|07756 |
20024921|1|20180729|53 poplar avenue |hackensack ||2|MICHAEL MINCHALA|nj ||0|Dwelling Rented to Others|07601 |
20025596|1|20190201|216 van buren street |newark ||3|JOSE HENRIQUES|nj ||0|Dwelling Rented to Others|07105 |
20025869|1|20190315|102 baltimore ave |glen burnie ||1| |md ||0|Dwelling Rented to Others|21061 |
20025869|2|20190315|718 wellham ave |glen burnie ||1| |md ||0|Dwelling Rented to Others|21061 |
20025869|3|20190315|104 baltimore avenue |glen burnie ||1| |md ||0|Dwelling Rented to Others|21061 |
20025869|4|20190315|106 baltimore avenue |glen burnie ||1| |md ||0|Dwelling Rented to Others|21061 |
20025869|5|20190315|351 baltimore avenue |odenton ||1| |md ||0|Dwelling Rented to Others|21113 |
20025869|6|20190315|700 wellham avenue |glen burnie ||1| |md ||0|Dwelling Rented to Others|21061 |
20026150|1|20190329|170-172 magnolia avenue |kearny ||4|ARMANDO MARTINS|nj ||0|Dwelling Rented to Others|07032 |
20026150|2|20190329|14-16 schuyler court |kearny ||4|ARMANDO MARTINS|nj ||0|Dwelling Rented to Others|07032 |
20028158|1|20190211|7 colony road |ortley beach ||1|DENISE BUCKLEY|nj ||0|Dwelling Rented to Others|08757 |
20030754|1|20190215|817 bordentown road |burlington ||1|GREGORY DEMASI|nj ||0|Dwelling Rented to Others|08016 |
20030754|2|20190215|40 broadway unit # 301-302 south |pitman ||1|GREGORY DEMASI|nj ||0|Dwelling Rented to Others|08071 |
20030795|1|20190105|37 greenwood avenue e |villas ||1|ROBERT NOLAN|nj ||0|Dwelling Rented to Others|08251 |
20030994|1|20190210|5 silopanna court |annapolis ||1| |md ||0|Dwelling Rented to Others|21403 |
20032066|1|20180912|967 belvoir road |plymouth meeting ||1|LAURA CLEELAND|pa ||0|Dwelling Rented to Others|19462 |
20032827|1|20190215|89 terrace ave |jersey city ||2|JAYANTILAL MUNJAPARA|nj ||0|Dwelling Rented to Others|07307 |
20032827|2|20190215|97 terrace ave |jersey city ||2|JAYANTILAL MUNJAPARA|nj ||0|Dwelling Rented to Others|07307 |
20033183|1|20190331|3144 windsor avenue |toms river ||1|CHAOYLING CHEN|nj ||0|Dwelling Rented to Others|08753 |
20034698|1|20180822|635 wyndham road |teaneck ||1|JON LONG|nj ||0|Dwelling Rented to Others|07666 |
20034821|1|20180922|24 28th avenue north |longport ||2|ROBERT WILLIAMS|nj ||0|Dwelling Rented to Others|08403 |
20035622|1|20181121|246 harmony road |gibbstown ||1|FREDERICK WEBER|nj ||0|Dwelling Rented to Others|08027 |
20036543|1|20190202|445 morris avenue |springfield ||1|MARISA PICA|nj ||0|Dwelling Rented to Others||
20036758|1|20190220|20 manor blvd. |edison ||1|BAHGAT AWAD|nj ||0|Dwelling Rented to Others|08820 |
20036758|2|20190220|538 shetland ct |sewell ||1|BAHGAT AWAD|nj ||0|Dwelling Rented to Others|08080 |
20037109|1|20190319|51 birchwood avenue |west orange ||1|DAVID POESL|nj ||0|Dwelling Rented to Others|07052 |
20037159|1|20190322|11 veterans way |edgewater ||1|GEORGE VILLANO|nj ||0|Dwelling Rented to Others|07020 |
20038991|1|20180802|243 lakewood drive |bloomfield ||2|ALFRED VASQUEZ|nj ||0|Dwelling Rented to Others|07003 |
20040171|1|20181127|32 maple lane a |brielle ||1|JOHN SICKLES|nj ||0|Dwelling Rented to Others|08730 |
20040801|1|20181204|1501 ocean avenue unit a19 |belmar ||1|DENNIS HORVATH, JR.|nj ||0|Dwelling Rented to Others|07719 |
20041101|1|20190112|105 woodbridge road |marlton ||1|TOM RAYNOR|nj ||0|Dwelling Rented to Others|08053 |
20041179|1|20190123|435 east avenue |millville ||1|CAROL PIERCE|nj ||0|Dwelling Rented to Others|08332 |
20041725|1|20190301|141 big piece rd |fairfield ||1|PETER MATARAZZO|nj ||0|Dwelling Rented to Others|07004 |
20041725|2|20190301|268 horseneck rd |fairlfield ||1|PETER MATARAZZO|nj ||0|Dwelling Rented to Others|07004 |
20042160|1|20190401|9601 atlantic ave unit 511 |wildwood ||1|ZHENG SHOU|nj ||0|Dwelling Rented to Others|08260 |
20042404|1|20190501|120 franklin avenue |egg harbor township ||1|ERIC BRITTAIN|nj ||0|Dwelling Rented to Others|08234 |
20044681|1|20180927|80 arlene ct |brick ||1|BERND FUELLEMANN|nj ||0|Dwelling Rented to Others|08724 |
20045688|1|20181125|8 oak court |brick ||1|MAUREEN CRONIN|nj ||0|Dwelling Rented to Others|07092 |
20046201|1|20190114|40 hadley lane |willingboro ||1|GAINUS CARTER|nj ||0|Dwelling Rented to Others|08046 |
20047288|1|20190418|276 claremont avenue |montclair ||3|EDWARD COSME|nj ||0|Dwelling Rented to Others|07042 |
20047519|1|20190501|149 mclaren st |red ||2|THOMAS SABELLA|bank ||0|Dwelling Rented to Others|07704 |
20047519|2|20190501|151 bridge ave |red bank ||2|THOMAS SABELLA|nj ||0|Dwelling Rented to Others|07704 |
20048185|1|20180719|515 delsea drive |sewell ||1|GLEN RAHM|nj ||0|Dwelling Rented to Others|08080 |
20048305|1|20180730|138 hamilton street |new brunswick ||2|SCOTT ELIAS|nj ||0|Dwelling Rented to Others|08901 |
20048444|1|20180701|423 somerset avnue |salisbury ||1| |md ||0|Dwelling Rented to Others|21801 |
20048619|1|20180723|146 ocean rd |ocean city ||1|ANN PALAITIS|nj ||0|Dwelling Rented to Others|08226 |
20049002|1|20180907|915-917 brighton place |ocean city ||3|FRANKLIN LISA|nj ||0|Dwelling Rented to Others|08226 |
20055176|1|20190405|320 18th ave |belmar ||1|CHARLES KOSTURA|nj ||0|Dwelling Rented to Others|07719 |
20056721|1|20180812|11 silver avenue |egg harbor township ||1|FREDERICK PUGGI|nj ||0|Dwelling Rented to Others||
20056846|1|20180828|550 central avenue unit # 50 |harrison ||1|MARIOLA KOMUREK-DEMATOS|nj ||0|Dwelling Rented to Others|07029 |
20058992|1|20190323|97 millstone road |englishtown ||1|THERESA GUTTRIDGE|nj ||0|Dwelling Rented to Others|07726 |
20059332|1|20190417|207-207 mercer street |hightstown ||4|LUMNIA PEROVIC|nj ||0|Dwelling Rented to Others|08520 |
20061406|1|20180901|2019 watersedge drive |toms river ||1|FRANK ADESSO|nj ||0|Dwelling Rented to Others|08753 |
20061406|2|20180901|544 ridgeview court |toms river ||1|FRANK ADESSO|nj ||0|Dwelling Rented to Others|08753 |
20061552|1|20180915|2 jerome avenue |erial ||2|ARLEEN LATHAM|nj ||0|Dwelling Rented to Others|08081 |
20062736|1|20181214|364 47 route |cape may court house ||1|FRANK WARBURTON|nj ||0|Dwelling Rented to Others||
HomePolicyId|Sequence|EffectiveDate|Address|City|Description|NoOfFam|Person|State|StructureDescription|StructureLimit|Type|Zip|CorPunish
76911|1|20190425|43 lee street b |woodstown ||2|MARGARET COLES|nj ||0|Dwelling Rented to Others|08098 |
80826|1|20181010|buttonwood avenue |hancocks bridge ||1|JEAN EMMONS|nj ||0|Dwelling Rented to Others||
81618|1|20190114|8 spruce avenue |salem ||1|PAULA GREEN-LEMAY|nj ||0|Dwelling Rented to Others|08079 |
83136|1|20180914|87 buttonwood avenue |hancocks bridge, salem county ||1|DIANA ALEXANDER|nj ||0|Dwelling Rented to Others|08038 |
84975|1|20181215|33 line street |pennsgrove ||1|JOHN LUCCHESI|nj ||0|Dwelling Rented to Others|08069 |
86635|1|20180916|515 lewandowski st |lyndhurst ||1|MICHAEL FESTA|nj ||0|Dwelling Rented to Others|07071 |
86635|2|20180916|163 lewandowski st. lot 2-b |block, lyndhurst ||1|MICHAEL FESTA|nj ||0|Dwelling Rented to Others|07071 |
92611|1|20181025|89a repaupo station road |logan twp ||1|JEAN WACHTER|nj ||0|Dwelling Rented to Others|08085 |
92611|2|20181025|89b repaupo station road |logan twp ||1|JEAN WACHTER|nj ||0|Dwelling Rented to Others|08085 |
93464|1|20190331|79 mattix run club |ii; absecon ||1|FRANK MAHONEY|nj ||0|Dwelling Rented to Others|08201 |
96889|1|20190401|900 mermaid avenue |beachwood ||1|KENNETH STEGMAN|nj ||0|Dwelling Rented to Others|08722 |
98272|1|20190305|124 stanton road east |wildwood crest ||2|WILLIAM KITA|nj ||0|Dwelling Rented to Others|08260 |
99799|1|20181101|582 russell avenue |long branch ||1|JAMES LONGENBERGER|nj ||0|Dwelling Rented to Others|07740 |
100872|1|20190317||shiloh ||1|RAYMOND MCDERMOTT|nj ||0|Dwelling Rented to Others|08353 |
104709|1|20180830|Richard_street_address|||1|WILLIAM LOUFIK|||0|Dwelling Rented to Others||
106606|1|20181005|119 cuthbert road |cinnaminson ||1|WILLIAM BURKETT|nj ||0|Dwelling Rented to Others|08077 |
106783|1|20181012|9 lakeview avenue |oaklyn ||1|ROSINSKI-VERONI ROSINSKI-VERONICA N|nj ||0|Dwelling Rented to Others||
107801|1|20181112|main street north |shiloh ||1|BARBARA PETERSON|nj ||0|Dwelling Rented to Others|08353 |
108193|1|20181122|13 griffith street west |penns grove ||1|DAVID DIXON|nj ||0|Dwelling Rented to Others|08069 |
112075|1|20180627|125-127 queen avenue |pennsville ||2|GEORGE KEHNAST|nj ||0|Dwelling Rented to Others|08070 |
204086|1|20181006|123 morning glory road east |rear) wildwood crest ||2|CELIA BARNHART-SPELLIER|nj ||0|Dwelling Rented to Others||
211570|1|20190412|s/s wiley street east |whitesboro ||1|FRANK JOHNSON|nj ||0|Dwelling Rented to Others||
212585|1|20180624|139 bay avenue |highlands ||1|JAMES DAVIS|nj ||0|Dwelling Rented to Others|07732 |
213355|1|20181023|130 duke street |||2|ARNALDO FERREIRA|||0|Dwelling Rented to Others||
215155|1|20181005|826 raymond boulevard |newark ||3|JOSE NUNES|nj ||0|Dwelling Rented to Others|07105 |
215155|2|20181005|822 raymond boulevard |newark ||1|JOSE NUNES|nj ||0|Dwelling Rented to Others|07105 |
215276|1|20181007|92 cookman avenue |ocean grove ||1|LOIS PITTIS|nj ||0|Dwelling Rented to Others|07756 |
216699|1|20180626|208 14th st floor) (1st |brigantine ||1|GEORGE LAWAICH|nj ||0|Dwelling Rented to Others|08203 |
217065|1|20180805|651 delaware street north |paulsboro ||1|JOHN BURZICHELLI|nj ||0|Dwelling Rented to Others|08006 |
217434|1|20181103|310 4th street north |(rear), harrison ||2|MARIA COELHO|nj ||0|Dwelling Rented to Others|07029 |
218603|1|20180727|291 marion avenue |cliffside park ||2|LOUISE PARISI|nj ||0|Dwelling Rented to Others|07010 |
218603|2|20180727|293 marion avenue |cliffside park ||2|LOUISE PARISI|nj ||0|Dwelling Rented to Others|07010 |
218659|1|20180625|3009 landis avenue north |sea isle city ||1|CLARENCE STULL|nj ||0|Dwelling Rented to Others|08243 |
220677|1|20181220|175 wilson avenue |newark ||2|MANUEL SOARES|nj ||0|Dwelling Rented to Others|07105 |
220691|1|20181222|95 napoleon street |newark ||1|ALBERTO ANTAO|nj ||0|Dwelling Rented to Others|07105 |
220691|2|20181222|93 napoleon street |newark ||1|ALBERTO ANTAO|nj ||0|Dwelling Rented to Others|07105 |
220691|3|20181222|28 komorn street |newark ||2|ALBERTO ANTAO|nj ||0|Dwelling Rented to Others|07105 |
221168|1|20190311|28 adams avenue west |pleasantville ||1|JANE CERINO|nj ||0|Dwelling Rented to Others|08232 |
221294|1|20190420|14 carpenter st |woodbury ||1|SYLVIA HILL|nj ||0|Dwelling Rented to Others||
221294|2|20190420|13 courtland st |woodbury ||2|SYLVIA HILL|nj ||0|Dwelling Rented to Others||
222754|1|20180701|23 cedar place |beckett ||1|ROYAL MULHORN|nj ||0|Dwelling Rented to Others|08085 |
222754|2|20180701|239 elfsborg ft rd. |elsinboro ||1|ROYAL MULHORN|nj ||0|Dwelling Rented to Others|08079 |
222754|3|20180701|426 15th avenue east |wildwood ||2|ROYAL MULHORN|nj ||0|Dwelling Rented to Others|08260 |
225521|1|20181113|821 penna ave. |somers point ||1|EVELYN LUSHEAR|nj ||0|Dwelling Rented to Others|08244 |
225521|2|20181113|3 creastmont ave. |somers point ||2|EVELYN LUSHEAR|nj ||0|Dwelling Rented to Others|08244 |
225521|3|20181113|5 creastmont ave. |somers point ||2|EVELYN LUSHEAR|nj ||0|Dwelling Rented to Others|08244 |
225521|4|20181113|115 new jersey ave. w. |somers point ||4|EVELYN LUSHEAR|nj ||0|Dwelling Rented to Others||
225521|5|20181113|211 tremont ave. w |pleasantville ||3|EVELYN LUSHEAR|nj ||0|Dwelling Rented to Others|08232 |
226521|1|20190125|6 francis place |montclair ||3|JAMES MAFFEI|nj ||0|Dwelling Rented to Others||
227502|1|20190415|712 avon road |pine beach ||1|PAT PAGNOTTA|nj ||0|Dwelling Rented to Others|08748 |
227666|1|20190412|109 cresse avenue west |rear, wilwood ||1|DOROTHY RANISZEWSKI|nj ||0|Dwelling Rented to Others|08260 |
229174|1|20180716|111 mulberry street |newark ||1|CECIL SANDERS|nj ||0|Dwelling Rented to Others|07102 |
229324|1|20180901|4257-59 west avenue |ocean city ||2|DOUGLAS LONG|nj ||0|Dwelling Rented to Others|08226 |
229518|1|20181010|Richard_street_address|||1|BENJIE SWAN|||0|Dwelling Rented to Others||
229518|2|20181010|6 oak avenue cape |may courthouse ||1|BENJIE SWAN|nj ||0|Dwelling Rented to Others|08210 |
229518|3|20181010|16 oak avenue cape |may courthouse ||1|BENJIE SWAN|nj ||0|Dwelling Rented to Others|08210 |
229833|1|20181031|308 van sant avenue |linwood ||1|HARRY ADAMS|nj ||0|Dwelling Rented to Others|08227 |
232376|1|20180719|41 normandie beach |sea bright ||1|ARMEN KHACHATURIAN|nj ||0|Dwelling Rented to Others||
232509|1|20180626|638 pennsylvania avenue |delanco ||3|THOMAS MACWRIGHT|nj ||0|Dwelling Rented to Others|08075 |
232894|1|20180815|10 abbott avenue |ocean grove ||4|ROBERT CAPOZZI|nj ||0|Dwelling Rented to Others|07756 |
234244|1|20190111|48 main street |pennsville ||1|ROBERT YOUKER|nj ||0|Dwelling Rented to Others|08070 |
234264|1|20190123|151 livingston avenue |new providence ||2|RICHARD FASTNACHT|nj ||0|Dwelling Rented to Others|07974 |
234852|1|20190329|98 nichols street |newark ||3|MANUEL VIDAL|nj ||0|Dwelling Rented to Others|07105 |
235908|1|20180715|11-13 front street |pennsville ||2|FRANK SMITH|nj ||0|Dwelling Rented to Others|08098 |
236686|1|20181021|7101 pleasure avenue |sea isle ||1|MICHAEL STERN|nj ||0|Dwelling Rented to Others|08243 |
238455|1|20190421|48 garrison street |(front) newark ||2|MANUEL DESOUSA|nj ||0|Dwelling Rented to Others||
239141|1|20180707|8 los angeles drive |little egg harbor ||1|KARL HELD|nj ||0|Dwelling Rented to Others|08087 |
241648|1|20181209|17 ella street |bloomingdale ||1|WILLIAM WHITEHEAD|nj ||0|Dwelling Rented to Others|07403 |
242179|1|20190105|11 cedar road |mickleton ||1|EDWARD MCCAFFREY|nj ||0|Dwelling Rented to Others|08056 |
243368|1|20190201|6 woodward road |manlapan ||1|MURRAY LIPMAN|nj ||0|Dwelling Rented to Others|07726 |
244080|1|20190428|930 main street |canton, salem ||1|DAVID TURNER|nj ||0|Dwelling Rented to Others|08079 |
244703|1|20180721|82 houston street |newark ||1|JOSE SARAIVA|nj ||0|Dwelling Rented to Others||
245353|1|20181006|13 eaton road |pennsville ||1|LOUISE BOWMAN|nj ||0|Dwelling Rented to Others|08070 |
246425|1|20190324|235 poplar avenue west |wildwood ||1|MICHAEL FRANKS|nj ||0|Dwelling Rented to Others|08260 |
246425|2|20190324|24 taylor avenue west |north wildwood ||1|MICHAEL FRANKS|nj ||0|Dwelling Rented to Others|08260 |
248566|1|20181209|778 kings highway |(front house) middletown ||1|ROBERT HEIDT|nj ||0|Dwelling Rented to Others|07748 |
301376|1|20190409|151 chicago boulevard point |pleasant beach ||1|MICHAEL FAVATO|nj ||0|Dwelling Rented to Others|08742 |
303541|1|20190330|1116 aaron road |north brunswick ||1|JOHN TRILLI|nj ||0|Dwelling Rented to Others|08902 |
305086|1|20190417|1719 beverly ave |(rear), spring lake hts ||1|SHARON BATTEAU|nj ||0|Dwelling Rented to Others|07762 |
308372|1|20190301|3104 ventnor avenue |longport ||1|JAMES CALLISTA|nj ||0|Dwelling Rented to Others|08403 |
313672|1|20180622|1201 commerce street n. |paulsboro ||1|VENOLD JOHNSON|nj ||0|Dwelling Rented to Others|08066 |
20001860|1|20180720|170 evergreen road apt 9a |edison ||1|ANN LIPIRO|nj ||0|Dwelling Rented to Others||
20002471|1|20180715|705 conifer drive |forked river ||1|JANE LORTON|nj ||0|Dwelling Rented to Others|08731 |
20007366|1|20180727|70 broadway |deepwater ||1|THOMAS HERZ|nj ||0|Dwelling Rented to Others|08023 |
20008043|1|20180730|183 lake road |atco ||1|JOSEPH GERMANO III|nj ||0|Dwelling Rented to Others|08004 |
20008527|1|20180923|272 pennsville-auburn road |pedricktown ||1|DONNA ZITKEVITZ|nj ||0|Dwelling Rented to Others||
20009041|1|20180801|84a white street |eatonbrook co-op eatontown ||1|ROBIN KREINER|nj ||0|Dwelling Rented to Others|07724 |
20012439|1|20190217|75 carpenter street |salem ||1|EDWARD MOORE|nj ||0|Dwelling Rented to Others|08079 |
20013411|1|20180727|2396 tricia court |atco ||1|ALAN BLACKFORD|nj ||0|Dwelling Rented to Others|08004 |
20013411|2|20180727|259 boxwood lane |cinaminson ||1|ALAN BLACKFORD|nj ||0|Dwelling Rented to Others|08077 |
20016984|1|20190303|42 bridgeport road south |bridgeport ||1|ROY MILLER|nj ||0|Dwelling Rented to Others|08014 |
20018568|1|20180720|530 valley road # 3n |upper montclair ||1|WILLIAM BASRALIAN|nj ||0|Dwelling Rented to Others|07043 |
20019192|1|20181028|41 pennington avenue |mays landing ||2|FREDERICK KNEBLE|nj ||0|Dwelling Rented to Others|08330 |
20019410|1|20181118|4 spruce street |waretown ||1|BRUCE BUSSELL|nj ||0|Dwelling Rented to Others||
20019537|1|20181209|631 central avenue |harrison ||3|JOHN MIGUEIS|nj ||0|Dwelling Rented to Others|07029 |
20024903|1|20180812|402 broadway south |sewell ||3|MICHAEL CARUSO|nj ||0|Dwelling Rented to Others|08080 |
20024918|1|20180927|99-99 asbury avenue 1/2 |ocean grove ||2|JEFFREY WILLIAMS|nj ||0|Dwelling Rented to Others|07756 |
20024921|1|20180729|53 poplar avenue |hackensack ||2|MICHAEL MINCHALA|nj ||0|Dwelling Rented to Others|07601 |
20025596|1|20190201|216 van buren street |newark ||3|JOSE HENRIQUES|nj ||0|Dwelling Rented to Others|07105 |
20025869|1|20190315|102 baltimore ave |glen burnie ||1| |md ||0|Dwelling Rented to Others|21061 |
20025869|2|20190315|718 wellham ave |glen burnie ||1| |md ||0|Dwelling Rented to Others|21061 |
20025869|3|20190315|104 baltimore avenue |glen burnie ||1| |md ||0|Dwelling Rented to Others|21061 |
20025869|4|20190315|106 baltimore avenue |glen burnie ||1| |md ||0|Dwelling Rented to Others|21061 |
20025869|5|20190315|351 baltimore avenue |odenton ||1| |md ||0|Dwelling Rented to Others|21113 |
20025869|6|20190315|700 wellham avenue |glen burnie ||1| |md ||0|Dwelling Rented to Others|21061 |
20026150|1|20190329|170-172 magnolia avenue |kearny ||4|ARMANDO MARTINS|nj ||0|Dwelling Rented to Others|07032 |
20026150|2|20190329|14-16 schuyler court |kearny ||4|ARMANDO MARTINS|nj ||0|Dwelling Rented to Others|07032 |
20028158|1|20190211|7 colony road |ortley beach ||1|DENISE BUCKLEY|nj ||0|Dwelling Rented to Others|08757 |
20030754|1|20190215|817 bordentown road |burlington ||1|GREGORY DEMASI|nj ||0|Dwelling Rented to Others|08016 |
20030754|2|20190215|40 broadway unit # 301-302 south |pitman ||1|GREGORY DEMASI|nj ||0|Dwelling Rented to Others|08071 |
20030795|1|20190105|37 greenwood avenue e |villas ||1|ROBERT NOLAN|nj ||0|Dwelling Rented to Others|08251 |
20030994|1|20190210|5 silopanna court |annapolis ||1| |md ||0|Dwelling Rented to Others|21403 |
20032066|1|20180912|967 belvoir road |plymouth meeting ||1|LAURA CLEELAND|pa ||0|Dwelling Rented to Others|19462 |
20032827|1|20190215|89 terrace ave |jersey city ||2|JAYANTILAL MUNJAPARA|nj ||0|Dwelling Rented to Others|07307 |
20032827|2|20190215|97 terrace ave |jersey city ||2|JAYANTILAL MUNJAPARA|nj ||0|Dwelling Rented to Others|07307 |
20033183|1|20190331|3144 windsor avenue |toms river ||1|CHAOYLING CHEN|nj ||0|Dwelling Rented to Others|08753 |
20034698|1|20180822|635 wyndham road |teaneck ||1|JON LONG|nj ||0|Dwelling Rented to Others|07666 |
20034821|1|20180922|24 28th avenue north |longport ||2|ROBERT WILLIAMS|nj ||0|Dwelling Rented to Others|08403 |
20035622|1|20181121|246 harmony road |gibbstown ||1|FREDERICK WEBER|nj ||0|Dwelling Rented to Others|08027 |
20036543|1|20190202|445 morris avenue |springfield ||1|MARISA PICA|nj ||0|Dwelling Rented to Others||
20036758|1|20190220|20 manor blvd. |edison ||1|BAHGAT AWAD|nj ||0|Dwelling Rented to Others|08820 |
20036758|2|20190220|538 shetland ct |sewell ||1|BAHGAT AWAD|nj ||0|Dwelling Rented to Others|08080 |
20037109|1|20190319|51 birchwood avenue |west orange ||1|DAVID POESL|nj ||0|Dwelling Rented to Others|07052 |
20037159|1|20190322|11 veterans way |edgewater ||1|GEORGE VILLANO|nj ||0|Dwelling Rented to Others|07020 |
20038991|1|20180802|243 lakewood drive |bloomfield ||2|ALFRED VASQUEZ|nj ||0|Dwelling Rented to Others|07003 |
20040171|1|20181127|32 maple lane a |brielle ||1|JOHN SICKLES|nj ||0|Dwelling Rented to Others|08730 |
20040801|1|20181204|1501 ocean avenue unit a19 |belmar ||1|DENNIS HORVATH, JR.|nj ||0|Dwelling Rented to Others|07719 |
20041101|1|20190112|105 woodbridge road |marlton ||1|TOM RAYNOR|nj ||0|Dwelling Rented to Others|08053 |
20041179|1|20190123|435 east avenue |millville ||1|CAROL PIERCE|nj ||0|Dwelling Rented to Others|08332 |
20041725|1|20190301|141 big piece rd |fairfield ||1|PETER MATARAZZO|nj ||0|Dwelling Rented to Others|07004 |
20041725|2|20190301|268 horseneck rd |fairlfield ||1|PETER MATARAZZO|nj ||0|Dwelling Rented to Others|07004 |
20042160|1|20190401|9601 atlantic ave unit 511 |wildwood ||1|ZHENG SHOU|nj ||0|Dwelling Rented to Others|08260 |
20042404|1|20190501|120 franklin avenue |egg harbor township ||1|ERIC BRITTAIN|nj ||0|Dwelling Rented to Others|08234 |
20044681|1|20180927|80 arlene ct |brick ||1|BERND FUELLEMANN|nj ||0|Dwelling Rented to Others|08724 |
20045688|1|20181125|8 oak court |brick ||1|MAUREEN CRONIN|nj ||0|Dwelling Rented to Others|07092 |
20046201|1|20190114|40 hadley lane |willingboro ||1|GAINUS CARTER|nj ||0|Dwelling Rented to Others|08046 |
20047288|1|20190418|276 claremont avenue |montclair ||3|EDWARD COSME|nj ||0|Dwelling Rented to Others|07042 |
20047519|1|20190501|149 mclaren st |red ||2|THOMAS SABELLA|bank ||0|Dwelling Rented to Others|07704 |
20047519|2|20190501|151 bridge ave |red bank ||2|THOMAS SABELLA|nj ||0|Dwelling Rented to Others|07704 |
20048185|1|20180719|515 delsea drive |sewell ||1|GLEN RAHM|nj ||0|Dwelling Rented to Others|08080 |
20048305|1|20180730|138 hamilton street |new brunswick ||2|SCOTT ELIAS|nj ||0|Dwelling Rented to Others|08901 |
20048444|1|20180701|423 somerset avnue |salisbury ||1| |md ||0|Dwelling Rented to Others|21801 |
20048619|1|20180723|146 ocean rd |ocean city ||1|ANN PALAITIS|nj ||0|Dwelling Rented to Others|08226 |
20049002|1|20180907|915-917 brighton place |ocean city ||3|FRANKLIN LISA|nj ||0|Dwelling Rented to Others|08226 |
20055176|1|20190405|320 18th ave |belmar ||1|CHARLES KOSTURA|nj ||0|Dwelling Rented to Others|07719 |
20056721|1|20180812|11 silver avenue |egg harbor township ||1|FREDERICK PUGGI|nj ||0|Dwelling Rented to Others||
20056846|1|20180828|550 central avenue unit # 50 |harrison ||1|MARIOLA KOMUREK-DEMATOS|nj ||0|Dwelling Rented to Others|07029 |
20058992|1|20190323|97 millstone road |englishtown ||1|THERESA GUTTRIDGE|nj ||0|Dwelling Rented to Others|07726 |
20059332|1|20190417|207-207 mercer street |hightstown ||4|LUMNIA PEROVIC|nj ||0|Dwelling Rented to Others|08520 |
20061406|1|20180901|2019 watersedge drive |toms river ||1|FRANK ADESSO|nj ||0|Dwelling Rented to Others|08753 |
20061406|2|20180901|544 ridgeview court |toms river ||1|FRANK ADESSO|nj ||0|Dwelling Rented to Others|08753 |
20061552|1|20180915|2 jerome avenue |erial ||2|ARLEEN LATHAM|nj ||0|Dwelling Rented to Others|08081 |
20062736|1|20181214|364 47 route |cape may court house ||1|FRANK WARBURTON|nj ||0|Dwelling Rented to Others||
HomePolicyId|Sequence|EffectiveDate|Address|City|Description|NoOfFam|Person|State|StructureDescription|StructureLimit|Type|Zip|CorPunish
76911|1|20190425|43 lee street b |woodstown ||2|MARGARET COLES|nj ||0|Dwelling Rented to Others|08098 |
80826|1|20181010|buttonwood avenue |hancocks bridge ||1|JEAN EMMONS|nj ||0|Dwelling Rented to Others||
81618|1|20190114|8 spruce avenue |salem ||1|PAULA GREEN-LEMAY|nj ||0|Dwelling Rented to Others|08079 |
83136|1|20180914|87 buttonwood avenue |hancocks bridge, salem county ||1|DIANA ALEXANDER|nj ||0|Dwelling Rented to Others|08038 |
84975|1|20181215|33 line street |pennsgrove ||1|JOHN LUCCHESI|nj ||0|Dwelling Rented to Others|08069 |
86635|1|20180916|515 lewandowski st |lyndhurst ||1|MICHAEL FESTA|nj ||0|Dwelling Rented to Others|07071 |
86635|2|20180916|163 lewandowski st. lot 2-b |block, lyndhurst ||1|MICHAEL FESTA|nj ||0|Dwelling Rented to Others|07071 |
92611|1|20181025|89a repaupo station road |logan twp ||1|JEAN WACHTER|nj ||0|Dwelling Rented to Others|08085 |
92611|2|20181025|89b repaupo station road |logan twp ||1|JEAN WACHTER|nj ||0|Dwelling Rented to Others|08085 |
93464|1|20190331|79 mattix run club |ii; absecon ||1|FRANK MAHONEY|nj ||0|Dwelling Rented to Others|08201 |
96889|1|20190401|900 mermaid avenue |beachwood ||1|KENNETH STEGMAN|nj ||0|Dwelling Rented to Others|08722 |
98272|1|20190305|124 stanton road east |wildwood crest ||2|WILLIAM KITA|nj ||0|Dwelling Rented to Others|08260 |
99799|1|20181101|582 russell avenue |long branch ||1|JAMES LONGENBERGER|nj ||0|Dwelling Rented to Others|07740 |
100872|1|20190317||shiloh ||1|RAYMOND MCDERMOTT|nj ||0|Dwelling Rented to Others|08353 |
104709|1|20180830|Richard_street_address|||1|WILLIAM LOUFIK|||0|Dwelling Rented to Others||
106606|1|20181005|119 cuthbert road |cinnaminson ||1|WILLIAM BURKETT|nj ||0|Dwelling Rented to Others|08077 |
106783|1|20181012|9 lakeview avenue |oaklyn ||1|ROSINSKI-VERONI ROSINSKI-VERONICA N|nj ||0|Dwelling Rented to Others||
107801|1|20181112|main street north |shiloh ||1|BARBARA PETERSON|nj ||0|Dwelling Rented to Others|08353 |
108193|1|20181122|13 griffith street west |penns grove ||1|DAVID DIXON|nj ||0|Dwelling Rented to Others|08069 |
112075|1|20180627|125-127 queen avenue |pennsville ||2|GEORGE KEHNAST|nj ||0|Dwelling Rented to Others|08070 |
204086|1|20181006|123 morning glory road east |rear) wildwood crest ||2|CELIA BARNHART-SPELLIER|nj ||0|Dwelling Rented to Others||
211570|1|20190412|s/s wiley street east |whitesboro ||1|FRANK JOHNSON|nj ||0|Dwelling Rented to Others||
212585|1|20180624|139 bay avenue |highlands ||1|JAMES DAVIS|nj ||0|Dwelling Rented to Others|07732 |
213355|1|20181023|130 duke street |||2|ARNALDO FERREIRA|||0|Dwelling Rented to Others||
215155|1|20181005|826 raymond boulevard |newark ||3|JOSE NUNES|nj ||0|Dwelling Rented to Others|07105 |
215155|2|20181005|822 raymond boulevard |newark ||1|JOSE NUNES|nj ||0|Dwelling Rented to Others|07105 |
215276|1|20181007|92 cookman avenue |ocean grove ||1|LOIS PITTIS|nj ||0|Dwelling Rented to Others|07756 |
216699|1|20180626|208 14th st floor) (1st |brigantine ||1|GEORGE LAWAICH|nj ||0|Dwelling Rented to Others|08203 |
217065|1|20180805|651 delaware street north |paulsboro ||1|JOHN BURZICHELLI|nj ||0|Dwelling Rented to Others|08006 |
217434|1|20181103|310 4th street north |(rear), harrison ||2|MARIA COELHO|nj ||0|Dwelling Rented to Others|07029 |
218603|1|20180727|291 marion avenue |cliffside park ||2|LOUISE PARISI|nj ||0|Dwelling Rented to Others|07010 |
218603|2|20180727|293 marion avenue |cliffside park ||2|LOUISE PARISI|nj ||0|Dwelling Rented to Others|07010 |
218659|1|20180625|3009 landis avenue north |sea isle city ||1|CLARENCE STULL|nj ||0|Dwelling Rented to Others|08243 |
220677|1|20181220|175 wilson avenue |newark ||2|MANUEL SOARES|nj ||0|Dwelling Rented to Others|07105 |
220691|1|20181222|95 napoleon street |newark ||1|ALBERTO ANTAO|nj ||0|Dwelling Rented to Others|07105 |
220691|2|20181222|93 napoleon street |newark ||1|ALBERTO ANTAO|nj ||0|Dwelling Rented to Others|07105 |
220691|3|20181222|28 komorn street |newark ||2|ALBERTO ANTAO|nj ||0|Dwelling Rented to Others|07105 |
221168|1|20190311|28 adams avenue west |pleasantville ||1|JANE CERINO|nj ||0|Dwelling Rented to Others|08232 |
221294|1|20190420|14 carpenter st |woodbury ||1|SYLVIA HILL|nj ||0|Dwelling Rented to Others||
221294|2|20190420|13 courtland st |woodbury ||2|SYLVIA HILL|nj ||0|Dwelling Rented to Others||
222754|1|20180701|23 cedar place |beckett ||1|ROYAL MULHORN|nj ||0|Dwelling Rented to Others|08085 |
222754|2|20180701|239 elfsborg ft rd. |elsinboro ||1|ROYAL MULHORN|nj ||0|Dwelling Rented to Others|08079 |
222754|3|20180701|426 15th avenue east |wildwood ||2|ROYAL MULHORN|nj ||0|Dwelling Rented to Others|08260 |
225521|1|20181113|821 penna ave. |somers point ||1|EVELYN LUSHEAR|nj ||0|Dwelling Rented to Others|08244 |
225521|2|20181113|3 creastmont ave. |somers point ||2|EVELYN LUSHEAR|nj ||0|Dwelling Rented to Others|08244 |
225521|3|20181113|5 creastmont ave. |somers point ||2|EVELYN LUSHEAR|nj ||0|Dwelling Rented to Others|08244 |
225521|4|20181113|115 new jersey ave. w. |somers point ||4|EVELYN LUSHEAR|nj ||0|Dwelling Rented to Others||
225521|5|20181113|211 tremont ave. w |pleasantville ||3|EVELYN LUSHEAR|nj ||0|Dwelling Rented to Others|08232 |
226521|1|20190125|6 francis place |montclair ||3|JAMES MAFFEI|nj ||0|Dwelling Rented to Others||
227502|1|20190415|712 avon road |pine beach ||1|PAT PAGNOTTA|nj ||0|Dwelling Rented to Others|08748 |
227666|1|20190412|109 cresse avenue west |rear, wilwood ||1|DOROTHY RANISZEWSKI|nj ||0|Dwelling Rented to Others|08260 |
229174|1|20180716|111 mulberry street |newark ||1|CECIL SANDERS|nj ||0|Dwelling Rented to Others|07102 |
229324|1|20180901|4257-59 west avenue |ocean city ||2|DOUGLAS LONG|nj ||0|Dwelling Rented to Others|08226 |
229518|1|20181010|Richard_street_address|||1|BENJIE SWAN|||0|Dwelling Rented to Others||
229518|2|20181010|6 oak avenue cape |may courthouse ||1|BENJIE SWAN|nj ||0|Dwelling Rented to Others|08210 |
229518|3|20181010|16 oak avenue cape |may courthouse ||1|BENJIE SWAN|nj ||0|Dwelling Rented to Others|08210 |
229833|1|20181031|308 van sant avenue |linwood ||1|HARRY ADAMS|nj ||0|Dwelling Rented to Others|08227 |
232376|1|20180719|41 normandie beach |sea bright ||1|ARMEN KHACHATURIAN|nj ||0|Dwelling Rented to Others||
232509|1|20180626|638 pennsylvania avenue |delanco ||3|THOMAS MACWRIGHT|nj ||0|Dwelling Rented to Others|08075 |
232894|1|20180815|10 abbott avenue |ocean grove ||4|ROBERT CAPOZZI|nj ||0|Dwelling Rented to Others|07756 |
234244|1|20190111|48 main street |pennsville ||1|ROBERT YOUKER|nj ||0|Dwelling Rented to Others|08070 |
234264|1|20190123|151 livingston avenue |new providence ||2|RICHARD FASTNACHT|nj ||0|Dwelling Rented to Others|07974 |
234852|1|20190329|98 nichols street |newark ||3|MANUEL VIDAL|nj ||0|Dwelling Rented to Others|07105 |
235908|1|20180715|11-13 front street |pennsville ||2|FRANK SMITH|nj ||0|Dwelling Rented to Others|08098 |
236686|1|20181021|7101 pleasure avenue |sea isle ||1|MICHAEL STERN|nj ||0|Dwelling Rented to Others|08243 |
238455|1|20190421|48 garrison street |(front) newark ||2|MANUEL DESOUSA|nj ||0|Dwelling Rented to Others||
239141|1|20180707|8 los angeles drive |little egg harbor ||1|KARL HELD|nj ||0|Dwelling Rented to Others|08087 |
241648|1|20181209|17 ella street |bloomingdale ||1|WILLIAM WHITEHEAD|nj ||0|Dwelling Rented to Others|07403 |
242179|1|20190105|11 cedar road |mickleton ||1|EDWARD MCCAFFREY|nj ||0|Dwelling Rented to Others|08056 |
243368|1|20190201|6 woodward road |manlapan ||1|MURRAY LIPMAN|nj ||0|Dwelling Rented to Others|07726 |
244080|1|20190428|930 main street |canton, salem ||1|DAVID TURNER|nj ||0|Dwelling Rented to Others|08079 |
244703|1|20180721|82 houston street |newark ||1|JOSE SARAIVA|nj ||0|Dwelling Rented to Others||
245353|1|20181006|13 eaton road |pennsville ||1|LOUISE BOWMAN|nj ||0|Dwelling Rented to Others|08070 |
246425|1|20190324|235 poplar avenue west |wildwood ||1|MICHAEL FRANKS|nj ||0|Dwelling Rented to Others|08260 |
246425|2|20190324|24 taylor avenue west |north wildwood ||1|MICHAEL FRANKS|nj ||0|Dwelling Rented to Others|08260 |
248566|1|20181209|778 kings highway |(front house) middletown ||1|ROBERT HEIDT|nj ||0|Dwelling Rented to Others|07748 |
301376|1|20190409|151 chicago boulevard point |pleasant beach ||1|MICHAEL FAVATO|nj ||0|Dwelling Rented to Others|08742 |
303541|1|20190330|1116 aaron road |north brunswick ||1|JOHN TRILLI|nj ||0|Dwelling Rented to Others|08902 |
305086|1|20190417|1719 beverly ave |(rear), spring lake hts ||1|SHARON BATTEAU|nj ||0|Dwelling Rented to Others|07762 |
308372|1|20190301|3104 ventnor avenue |longport ||1|JAMES CALLISTA|nj ||0|Dwelling Rented to Others|08403 |
313672|1|20180622|1201 commerce street n. |paulsboro ||1|VENOLD JOHNSON|nj ||0|Dwelling Rented to Others|08066 |
20001860|1|20180720|170 evergreen road apt 9a |edison ||1|ANN LIPIRO|nj ||0|Dwelling Rented to Others||
20002471|1|20180715|705 conifer drive |forked river ||1|JANE LORTON|nj ||0|Dwelling Rented to Others|08731 |
20007366|1|20180727|70 broadway |deepwater ||1|THOMAS HERZ|nj ||0|Dwelling Rented to Others|08023 |
20008043|1|20180730|183 lake road |atco ||1|JOSEPH GERMANO III|nj ||0|Dwelling Rented to Others|08004 |
20008527|1|20180923|272 pennsville-auburn road |pedricktown ||1|DONNA ZITKEVITZ|nj ||0|Dwelling Rented to Others||
20009041|1|20180801|84a white street |eatonbrook co-op eatontown ||1|ROBIN KREINER|nj ||0|Dwelling Rented to Others|07724 |
20012439|1|20190217|75 carpenter street |salem ||1|EDWARD MOORE|nj ||0|Dwelling Rented to Others|08079 |
20013411|1|20180727|2396 tricia court |atco ||1|ALAN BLACKFORD|nj ||0|Dwelling Rented to Others|08004 |
20013411|2|20180727|259 boxwood lane |cinaminson ||1|ALAN BLACKFORD|nj ||0|Dwelling Rented to Others|08077 |
20016984|1|20190303|42 bridgeport road south |bridgeport ||1|ROY MILLER|nj ||0|Dwelling Rented to Others|08014 |
20018568|1|20180720|530 valley road # 3n |upper montclair ||1|WILLIAM BASRALIAN|nj ||0|Dwelling Rented to Others|07043 |
20019192|1|20181028|41 pennington avenue |mays landing ||2|FREDERICK KNEBLE|nj ||0|Dwelling Rented to Others|08330 |
20019410|1|20181118|4 spruce street |waretown ||1|BRUCE BUSSELL|nj ||0|Dwelling Rented to Others||
20019537|1|20181209|631 central avenue |harrison ||3|JOHN MIGUEIS|nj ||0|Dwelling Rented to Others|07029 |
20024903|1|20180812|402 broadway south |sewell ||3|MICHAEL CARUSO|nj ||0|Dwelling Rented to Others|08080 |
20024918|1|20180927|99-99 asbury avenue 1/2 |ocean grove ||2|JEFFREY WILLIAMS|nj ||0|Dwelling Rented to Others|07756 |
20024921|1|20180729|53 poplar avenue |hackensack ||2|MICHAEL MINCHALA|nj ||0|Dwelling Rented to Others|07601 |
20025596|1|20190201|216 van buren street |newark ||3|JOSE HENRIQUES|nj ||0|Dwelling Rented to Others|07105 |
20025869|1|20190315|102 baltimore ave |glen burnie ||1| |md ||0|Dwelling Rented to Others|21061 |
20025869|2|20190315|718 wellham ave |glen burnie ||1| |md ||0|Dwelling Rented to Others|21061 |
20025869|3|20190315|104 baltimore avenue |glen burnie ||1| |md ||0|Dwelling Rented to Others|21061 |
20025869|4|20190315|106 baltimore avenue |glen burnie ||1| |md ||0|Dwelling Rented to Others|21061 |
20025869|5|20190315|351 baltimore avenue |odenton ||1| |md ||0|Dwelling Rented to Others|21113 |
20025869|6|20190315|700 wellham avenue |glen burnie ||1| |md ||0|Dwelling Rented to Others|21061 |
20026150|1|20190329|170-172 magnolia avenue |kearny ||4|ARMANDO MARTINS|nj ||0|Dwelling Rented to Others|07032 |
20026150|2|20190329|14-16 schuyler court |kearny ||4|ARMANDO MARTINS|nj ||0|Dwelling Rented to Others|07032 |
20028158|1|20190211|7 colony road |ortley beach ||1|DENISE BUCKLEY|nj ||0|Dwelling Rented to Others|08757 |
20030754|1|20190215|817 bordentown road |burlington ||1|GREGORY DEMASI|nj ||0|Dwelling Rented to Others|08016 |
20030754|2|20190215|40 broadway unit # 301-302 south |pitman ||1|GREGORY DEMASI|nj ||0|Dwelling Rented to Others|08071 |
20030795|1|20190105|37 greenwood avenue e |villas ||1|ROBERT NOLAN|nj ||0|Dwelling Rented to Others|08251 |
20030994|1|20190210|5 silopanna court |annapolis ||1| |md ||0|Dwelling Rented to Others|21403 |
20032066|1|20180912|967 belvoir road |plymouth meeting ||1|LAURA CLEELAND|pa ||0|Dwelling Rented to Others|19462 |
20032827|1|20190215|89 terrace ave |jersey city ||2|JAYANTILAL MUNJAPARA|nj ||0|Dwelling Rented to Others|07307 |
20032827|2|20190215|97 terrace ave |jersey city ||2|JAYANTILAL MUNJAPARA|nj ||0|Dwelling Rented to Others|07307 |
20033183|1|20190331|3144 windsor avenue |toms river ||1|CHAOYLING CHEN|nj ||0|Dwelling Rented to Others|08753 |
20034698|1|20180822|635 wyndham road |teaneck ||1|JON LONG|nj ||0|Dwelling Rented to Others|07666 |
20034821|1|20180922|24 28th avenue north |longport ||2|ROBERT WILLIAMS|nj ||0|Dwelling Rented to Others|08403 |
20035622|1|20181121|246 harmony road |gibbstown ||1|FREDERICK WEBER|nj ||0|Dwelling Rented to Others|08027 |
20036543|1|20190202|445 morris avenue |springfield ||1|MARISA PICA|nj ||0|Dwelling Rented to Others||
20036758|1|20190220|20 manor blvd. |edison ||1|BAHGAT AWAD|nj ||0|Dwelling Rented to Others|08820 |
20036758|2|20190220|538 shetland ct |sewell ||1|BAHGAT AWAD|nj ||0|Dwelling Rented to Others|08080 |
20037109|1|20190319|51 birchwood avenue |west orange ||1|DAVID POESL|nj ||0|Dwelling Rented to Others|07052 |
20037159|1|20190322|11 veterans way |edgewater ||1|GEORGE VILLANO|nj ||0|Dwelling Rented to Others|07020 |
20038991|1|20180802|243 lakewood drive |bloomfield ||2|ALFRED VASQUEZ|nj ||0|Dwelling Rented to Others|07003 |
20040171|1|20181127|32 maple lane a |brielle ||1|JOHN SICKLES|nj ||0|Dwelling Rented to Others|08730 |
20040801|1|20181204|1501 ocean avenue unit a19 |belmar ||1|DENNIS HORVATH, JR.|nj ||0|Dwelling Rented to Others|07719 |
20041101|1|20190112|105 woodbridge road |marlton ||1|TOM RAYNOR|nj ||0|Dwelling Rented to Others|08053 |
20041179|1|20190123|435 east avenue |millville ||1|CAROL PIERCE|nj ||0|Dwelling Rented to Others|08332 |
20041725|1|20190301|141 big piece rd |fairfield ||1|PETER MATARAZZO|nj ||0|Dwelling Rented to Others|07004 |
20041725|2|20190301|268 horseneck rd |fairlfield ||1|PETER MATARAZZO|nj ||0|Dwelling Rented to Others|07004 |
20042160|1|20190401|9601 atlantic ave unit 511 |wildwood ||1|ZHENG SHOU|nj ||0|Dwelling Rented to Others|08260 |
20042404|1|20190501|120 franklin avenue |egg harbor township ||1|ERIC BRITTAIN|nj ||0|Dwelling Rented to Others|08234 |
20044681|1|20180927|80 arlene ct |brick ||1|BERND FUELLEMANN|nj ||0|Dwelling Rented to Others|08724 |
20045688|1|20181125|8 oak court |brick ||1|MAUREEN CRONIN|nj ||0|Dwelling Rented to Others|07092 |
20046201|1|20190114|40 hadley lane |willingboro ||1|GAINUS CARTER|nj ||0|Dwelling Rented to Others|08046 |
20047288|1|20190418|276 claremont avenue |montclair ||3|EDWARD COSME|nj ||0|Dwelling Rented to Others|07042 |
20047519|1|20190501|149 mclaren st |red ||2|THOMAS SABELLA|bank ||0|Dwelling Rented to Others|07704 |
20047519|2|20190501|151 bridge ave |red bank ||2|THOMAS SABELLA|nj ||0|Dwelling Rented to Others|07704 |
20048185|1|20180719|515 delsea drive |sewell ||1|GLEN RAHM|nj ||0|Dwelling Rented to Others|08080 |
20048305|1|20180730|138 hamilton street |new brunswick ||2|SCOTT ELIAS|nj ||0|Dwelling Rented to Others|08901 |
20048444|1|20180701|423 somerset avnue |salisbury ||1| |md ||0|Dwelling Rented to Others|21801 |
20048619|1|20180723|146 ocean rd |ocean city ||1|ANN PALAITIS|nj ||0|Dwelling Rented to Others|08226 |
20049002|1|20180907|915-917 brighton place |ocean city ||3|FRANKLIN LISA|nj ||0|Dwelling Rented to Others|08226 |
20055176|1|20190405|320 18th ave |belmar ||1|CHARLES KOSTURA|nj ||0|Dwelling Rented to Others|07719 |
20056721|1|20180812|11 silver avenue |egg harbor township ||1|FREDERICK PUGGI|nj ||0|Dwelling Rented to Others||
20056846|1|20180828|550 central avenue unit # 50 |harrison ||1|MARIOLA KOMUREK-DEMATOS|nj ||0|Dwelling Rented to Others|07029 |
20058992|1|20190323|97 millstone road |englishtown ||1|THERESA GUTTRIDGE|nj ||0|Dwelling Rented to Others|07726 |
20059332|1|20190417|207-207 mercer street |hightstown ||4|LUMNIA PEROVIC|nj ||0|Dwelling Rented to Others|08520 |
20061406|1|20180901|2019 watersedge drive |toms river ||1|FRANK ADESSO|nj ||0|Dwelling Rented to Others|08753 |
20061406|2|20180901|544 ridgeview court |toms river ||1|FRANK ADESSO|nj ||0|Dwelling Rented to Others|08753 |
20061552|1|20180915|2 jerome avenue |erial ||2|ARLEEN LATHAM|nj ||0|Dwelling Rented to Others|08081 |
20062736|1|20181214|364 47 route |cape may court house ||1|FRANK WARBURTON|nj ||0|Dwelling Rented to Others||
